{"fetched_at":"2026-07-14T06:34:51.094Z","source":"https://celestrak.org/NORAD/elements/gp.php?NAME=JILIN&FORMAT=JSON","constellation":"jilin-1-gaofen","records":[{"OBJECT_NAME":"JILIN-1 GAOFEN 03D51","OBJECT_ID":"2022-155B","EPOCH":"2026-07-13T20:25:14.908800","CLASSIFICATION_TYPE":"U","MEAN_MOTION":15.64764656,"ECCENTRICITY":0.0004339,"INCLINATION":97.6252,"RA_OF_ASC_NODE":341.7639,"ARG_OF_PERICENTER":236.5486,"MEAN_ANOMALY":123.5359,"EPHEMERIS_TYPE":0,"NORAD_CAT_ID":54252,"ELEMENT_SET_NO":999,"REV_AT_EPOCH":20391,"BSTAR":0.00036048,"MEAN_MOTION_DOT":0.00034998,"MEAN_MOTION_DDOT":0},{"OBJECT_NAME":"JILIN-1 GAOFEN 03D53","OBJECT_ID":"2022-155C","EPOCH":"2026-07-13T19:41:12.993792","CLASSIFICATION_TYPE":"U","MEAN_MOTION":15.54361988,"ECCENTRICITY":0.0004821,"INCLINATION":97.6243,"RA_OF_ASC_NODE":336.9558,"ARG_OF_PERICENTER":256.7124,"MEAN_ANOMALY":103.3592,"EPHEMERIS_TYPE":0,"NORAD_CAT_ID":54253,"ELEMENT_SET_NO":999,"REV_AT_EPOCH":20362,"BSTAR":0.00033198,"MEAN_MOTION_DOT":0.00021677,"MEAN_MOTION_DDOT":0},{"OBJECT_NAME":"JILIN-1 GAOFEN 03D52","OBJECT_ID":"2022-155E","EPOCH":"2026-07-13T21:37:09.073344","CLASSIFICATION_TYPE":"U","MEAN_MOTION":15.61955262,"ECCENTRICITY":0.0003675,"INCLINATION":97.6227,"RA_OF_ASC_NODE":340.0352,"ARG_OF_PERICENTER":252.1024,"MEAN_ANOMALY":107.9833,"EPHEMERIS_TYPE":0,"NORAD_CAT_ID":54255,"ELEMENT_SET_NO":999,"REV_AT_EPOCH":20387,"BSTAR":0.00036519,"MEAN_MOTION_DOT":0.00031752,"MEAN_MOTION_DDOT":0},{"OBJECT_NAME":"JILIN-1 GAOFEN 03D50","OBJECT_ID":"2022-167J","EPOCH":"2026-07-13T20:37:48.256320","CLASSIFICATION_TYPE":"U","MEAN_MOTION":15.35044575,"ECCENTRICITY":0.0005305,"INCLINATION":97.6844,"RA_OF_ASC_NODE":3.8056,"ARG_OF_PERICENTER":25.9755,"MEAN_ANOMALY":334.1752,"EPHEMERIS_TYPE":0,"NORAD_CAT_ID":54690,"ELEMENT_SET_NO":999,"REV_AT_EPOCH":19944,"BSTAR":0.00019535,"MEAN_MOTION_DOT":0.00006558,"MEAN_MOTION_DDOT":0},{"OBJECT_NAME":"JILIN-1 GAOFEN 03D47","OBJECT_ID":"2022-167L","EPOCH":"2026-07-13T20:42:30.932928","CLASSIFICATION_TYPE":"U","MEAN_MOTION":15.34326866,"ECCENTRICITY":0.0007887,"INCLINATION":97.6941,"RA_OF_ASC_NODE":5.5467,"ARG_OF_PERICENTER":33.9018,"MEAN_ANOMALY":326.2727,"EPHEMERIS_TYPE":0,"NORAD_CAT_ID":54692,"ELEMENT_SET_NO":999,"REV_AT_EPOCH":19943,"BSTAR":0.00018723,"MEAN_MOTION_DOT":0.00006142,"MEAN_MOTION_DDOT":0},{"OBJECT_NAME":"JILIN-1 GAOFEN 03D49","OBJECT_ID":"2022-167N","EPOCH":"2026-07-13T18:02:15.573696","CLASSIFICATION_TYPE":"U","MEAN_MOTION":15.3801973,"ECCENTRICITY":0.000615,"INCLINATION":97.6818,"RA_OF_ASC_NODE":6.0817,"ARG_OF_PERICENTER":53.812,"MEAN_ANOMALY":306.3692,"EPHEMERIS_TYPE":0,"NORAD_CAT_ID":54694,"ELEMENT_SET_NO":999,"REV_AT_EPOCH":19957,"BSTAR":0.00020387,"MEAN_MOTION_DOT":0.00007541,"MEAN_MOTION_DDOT":0},{"OBJECT_NAME":"JILIN-1 GAOFEN 03D48","OBJECT_ID":"2022-167P","EPOCH":"2026-07-13T20:27:58.717152","CLASSIFICATION_TYPE":"U","MEAN_MOTION":15.3577453,"ECCENTRICITY":0.0006565,"INCLINATION":97.6891,"RA_OF_ASC_NODE":5.5169,"ARG_OF_PERICENTER":34.7173,"MEAN_ANOMALY":325.4497,"EPHEMERIS_TYPE":0,"NORAD_CAT_ID":54695,"ELEMENT_SET_NO":999,"REV_AT_EPOCH":19948,"BSTAR":0.00018927,"MEAN_MOTION_DOT":0.00006503,"MEAN_MOTION_DDOT":0},{"OBJECT_NAME":"JILIN GAOFEN OBJECT A","OBJECT_ID":"2026-080A","EPOCH":"2026-07-13T00:17:31.958880","CLASSIFICATION_TYPE":"U","MEAN_MOTION":15.09189243,"ECCENTRICITY":0.00113812,"INCLINATION":97.6615,"RA_OF_ASC_NODE":269.4933,"ARG_OF_PERICENTER":343.1565,"MEAN_ANOMALY":16.9284,"EPHEMERIS_TYPE":0,"NORAD_CAT_ID":68691,"ELEMENT_SET_NO":999,"REV_AT_EPOCH":1355,"BSTAR":0.0002123377,"MEAN_MOTION_DOT":0.00003313,"MEAN_MOTION_DDOT":0},{"OBJECT_NAME":"JILIN GAOFEN OBJECT B","OBJECT_ID":"2026-080B","EPOCH":"2026-07-13T20:32:39.301152","CLASSIFICATION_TYPE":"U","MEAN_MOTION":15.09098206,"ECCENTRICITY":0.0014909,"INCLINATION":97.6593,"RA_OF_ASC_NODE":270.3511,"ARG_OF_PERICENTER":318.1631,"MEAN_ANOMALY":41.8456,"EPHEMERIS_TYPE":0,"NORAD_CAT_ID":68692,"ELEMENT_SET_NO":999,"REV_AT_EPOCH":1368,"BSTAR":0.00014724,"MEAN_MOTION_DOT":0.00002274,"MEAN_MOTION_DDOT":0},{"OBJECT_NAME":"JILIN GAOFEN OBJECT C","OBJECT_ID":"2026-080C","EPOCH":"2026-07-13T00:15:39.218976","CLASSIFICATION_TYPE":"U","MEAN_MOTION":15.09172584,"ECCENTRICITY":0.00122108,"INCLINATION":97.6598,"RA_OF_ASC_NODE":269.4765,"ARG_OF_PERICENTER":323.0944,"MEAN_ANOMALY":36.9443,"EPHEMERIS_TYPE":0,"NORAD_CAT_ID":68693,"ELEMENT_SET_NO":999,"REV_AT_EPOCH":1355,"BSTAR":0.00021711177,"MEAN_MOTION_DOT":0.00003389,"MEAN_MOTION_DDOT":0},{"OBJECT_NAME":"JILIN GAOFEN OBJECT D","OBJECT_ID":"2026-080D","EPOCH":"2026-07-13T20:33:41.728608","CLASSIFICATION_TYPE":"U","MEAN_MOTION":15.08953848,"ECCENTRICITY":0.0016532,"INCLINATION":97.6657,"RA_OF_ASC_NODE":270.4247,"ARG_OF_PERICENTER":330.4604,"MEAN_ANOMALY":29.5688,"EPHEMERIS_TYPE":0,"NORAD_CAT_ID":68694,"ELEMENT_SET_NO":999,"REV_AT_EPOCH":1366,"BSTAR":0.00014272,"MEAN_MOTION_DOT":0.00002194,"MEAN_MOTION_DDOT":0},{"OBJECT_NAME":"JILIN GAOFEN OBJECT E","OBJECT_ID":"2026-080E","EPOCH":"2026-07-13T20:07:39.235584","CLASSIFICATION_TYPE":"U","MEAN_MOTION":15.09245817,"ECCENTRICITY":0.0012581,"INCLINATION":97.6636,"RA_OF_ASC_NODE":270.4268,"ARG_OF_PERICENTER":341.9682,"MEAN_ANOMALY":18.1099,"EPHEMERIS_TYPE":0,"NORAD_CAT_ID":68695,"ELEMENT_SET_NO":999,"REV_AT_EPOCH":1364,"BSTAR":0.00018323,"MEAN_MOTION_DOT":0.00002855,"MEAN_MOTION_DDOT":0},{"OBJECT_NAME":"JILIN GAOFEN OBJECT F","OBJECT_ID":"2026-080F","EPOCH":"2026-07-13T20:06:11.697696","CLASSIFICATION_TYPE":"U","MEAN_MOTION":15.09210646,"ECCENTRICITY":0.0013668,"INCLINATION":97.6607,"RA_OF_ASC_NODE":270.3948,"ARG_OF_PERICENTER":347.8446,"MEAN_ANOMALY":12.2451,"EPHEMERIS_TYPE":0,"NORAD_CAT_ID":68696,"ELEMENT_SET_NO":999,"REV_AT_EPOCH":1364,"BSTAR":0.00018886,"MEAN_MOTION_DOT":0.00002943,"MEAN_MOTION_DDOT":0},{"OBJECT_NAME":"JILIN GAOFEN OBJECT G","OBJECT_ID":"2026-080G","EPOCH":"2026-07-13T19:46:10.988256","CLASSIFICATION_TYPE":"U","MEAN_MOTION":15.09196349,"ECCENTRICITY":0.0013534,"INCLINATION":97.6655,"RA_OF_ASC_NODE":270.4643,"ARG_OF_PERICENTER":340.9515,"MEAN_ANOMALY":19.1205,"EPHEMERIS_TYPE":0,"NORAD_CAT_ID":68697,"ELEMENT_SET_NO":999,"REV_AT_EPOCH":1364,"BSTAR":0.0002109,"MEAN_MOTION_DOT":0.00003293,"MEAN_MOTION_DDOT":0},{"OBJECT_NAME":"JILIN GAOFEN OBJECT H","OBJECT_ID":"2026-080H","EPOCH":"2026-07-13T19:43:09.162912","CLASSIFICATION_TYPE":"U","MEAN_MOTION":15.09126923,"ECCENTRICITY":0.0014264,"INCLINATION":97.6642,"RA_OF_ASC_NODE":270.4535,"ARG_OF_PERICENTER":342.447,"MEAN_ANOMALY":17.6264,"EPHEMERIS_TYPE":0,"NORAD_CAT_ID":68698,"ELEMENT_SET_NO":999,"REV_AT_EPOCH":1364,"BSTAR":0.00020933,"MEAN_MOTION_DOT":0.00003263,"MEAN_MOTION_DDOT":0}]}
