JILIN-1 GAOFEN 03D51    
1 54252U 22155B   26194.85086700  .00034998  00000+0  36048-3 0  9995
2 54252  97.6252 341.7639 0004339 236.5486 123.5359 15.64764656203910
JILIN-1 GAOFEN 03D53    
1 54253U 22155C   26194.82028928  .00021677  00000+0  33198-3 0  9994
2 54253  97.6243 336.9558 0004821 256.7124 103.3592 15.54361988203629
JILIN-1 GAOFEN 03D52    
1 54255U 22155E   26194.90079946  .00031752  00000+0  36519-3 0  9996
2 54255  97.6227 340.0352 0003675 252.1024 107.9833 15.61955262203873
JILIN-1 GAOFEN 03D50    
1 54690U 22167J   26194.85958630  .00006558  00000+0  19535-3 0  9997
2 54690  97.6844   3.8056 0005305  25.9755 334.1752 15.35044575199443
JILIN-1 GAOFEN 03D47    
1 54692U 22167L   26194.86285802  .00006142  00000+0  18723-3 0  9991
2 54692  97.6941   5.5467 0007887  33.9018 326.2727 15.34326866199434
JILIN-1 GAOFEN 03D49    
1 54694U 22167N   26194.75156914  .00007541  00000+0  20387-3 0  9995
2 54694  97.6818   6.0817 0006150  53.8120 306.3692 15.38019730199579
JILIN-1 GAOFEN 03D48    
1 54695U 22167P   26194.85276293  .00006503  00000+0  18927-3 0  9994
2 54695  97.6891   5.5169 0006565  34.7173 325.4497 15.35774530199489
JILIN GAOFEN OBJECT A   
1 68691U 26080A   26194.01217545  .00003313  00000+0  21234-3 0  9997
2 68691  97.6615 269.4933 0011381 343.1565  16.9284 15.09189243 13559
JILIN GAOFEN OBJECT B   
1 68692U 26080B   26194.85601043  .00002274  00000+0  14724-3 0  9991
2 68692  97.6593 270.3511 0014909 318.1631  41.8456 15.09098206 13683
JILIN GAOFEN OBJECT C   
1 68693U 26080C   26194.01087059  .00003389  00000+0  21711-3 0  9997
2 68693  97.6598 269.4765 0012210 323.0944  36.9443 15.09172584 13553
JILIN GAOFEN OBJECT D   
1 68694U 26080D   26194.85673297  .00002194  00000+0  14272-3 0  9992
2 68694  97.6657 270.4247 0016532 330.4604  29.5688 15.08953848 13663
JILIN GAOFEN OBJECT E   
1 68695U 26080E   26194.83864856  .00002855  00000+0  18323-3 0  9999
2 68695  97.6636 270.4268 0012581 341.9682  18.1099 15.09245817 13646
JILIN GAOFEN OBJECT F   
1 68696U 26080F   26194.83763539  .00002943  00000+0  18886-3 0  9998
2 68696  97.6607 270.3948 0013668 347.8446  12.2451 15.09210646 13648
JILIN GAOFEN OBJECT G   
1 68697U 26080G   26194.82373829  .00003293  00000+0  21090-3 0  9997
2 68697  97.6655 270.4643 0013534 340.9515  19.1205 15.09196349 13644
JILIN GAOFEN OBJECT H   
1 68698U 26080H   26194.82163383  .00003263  00000+0  20933-3 0  9992
2 68698  97.6642 270.4535 0014264 342.4470  17.6264 15.09126923 13648
